start=new Date('2022-01-20T00:00:00.000Z').valueOf();
sats=[{"REF_FRAME":"TEME","ELEMENT_SET_NO":"999","OBJECT_TYPE":"PAYLOAD","EPOCH":"2022-01-19T06:31:01.778304","RCS_SIZE":"MEDIUM","TIME_SYSTEM":"UTC","FILE":"3277432","TLE_LINE2":"2 47870  53.0498 227.1636 0002141  68.1073 292.0144 15.06381729 48227","SITE":"AFETR","PERIAPSIS":"545.787","ARG_OF_PERICENTER":"68.1073","COUNTRY_CODE":"US","INCLINATION":"53.0498","ECCENTRICITY":"0.00021410","EPHEMERIS_TYPE":"0","RA_OF_ASC_NODE":"227.1636","GP_ID":"194192154","SEMIMAJOR_AXIS":"6925.405","BSTAR":"-0.00007595100000","NORAD_CAT_ID":"47870","MEAN_MOTION":"15.06381729","DECAY_DATE":null,"APOAPSIS":"548.752","TLE_LINE1":"1 47870U 21021L   22019.27154836 -.00001412  00000-0 -75951-4 0  9993","OBJECT_NAME":"STARLINK-2326","MEAN_ANOMALY":"292.0144","MEAN_MOTION_DDOT":"0.0000000000000","PERIOD":"95.593","CENTER_NAME":"EARTH","LAUNCH_DATE":"2021-03-14","CLASSIFICATION_TYPE":"U","MEAN_ELEMENT_THEORY":"SGP4","MEAN_MOTION_DOT":"-0.00001412","OBJECT_ID":"2021-021L","REV_AT_EPOCH":"4822"},{"CENTER_NAME":"EARTH","PERIOD":"95.592","MEAN_MOTION_DDOT":"0.0000000000000","MEAN_ELEMENT_THEORY":"SGP4","CLASSIFICATION_TYPE":"U","LAUNCH_DATE":"2021-03-14","NORAD_CAT_ID":"47871","DECAY_DATE":null,"MEAN_MOTION":"15.06401138","TLE_LINE1":"1 47871U 21021M   22019.78065227 -.00000103  00000-0  12026-4 0  9994","OBJECT_NAME":"STARLINK-2327","MEAN_ANOMALY":"274.3564","APOAPSIS":"548.716","MEAN_MOTION_DOT":"-0.00000103","REV_AT_EPOCH":"4828","OBJECT_ID":"2021-021M","TIME_SYSTEM":"UTC","FILE":"3277872","ARG_OF_PERICENTER":"85.7673","TLE_LINE2":"2 47871  53.0554 199.8745 0002175  85.7673 274.3564 15.06401138 48287","PERIAPSIS":"545.704","SITE":"AFETR","ELEMENT_SET_NO":"999","REF_FRAME":"TEME","EPOCH":"2022-01-19T18:44:08.356128","OBJECT_TYPE":"PAYLOAD","RCS_SIZE":"LARGE","EPHEMERIS_TYPE":"0","RA_OF_ASC_NODE":"199.8745","GP_ID":"194200613","BSTAR":"0.00001202600000","SEMIMAJOR_AXIS":"6925.345","COUNTRY_CODE":"US","INCLINATION":"53.0554","ECCENTRICITY":"0.00021750"},{"FILE":"3277432","TIME_SYSTEM":"UTC","ARG_OF_PERICENTER":"53.4069","TLE_LINE2":"2 47872  53.0604 161.2880 0001197  53.4069 306.7032 15.09504483 49271","PERIAPSIS":"536.887","SITE":"AFETR","ELEMENT_SET_NO":"999","REF_FRAME":"TEME","RCS_SIZE":"LARGE","EPOCH":"2022-01-19T10:23:42.866592","OBJECT_TYPE":"PAYLOAD","EPHEMERIS_TYPE":"0","BSTAR":"0.00247270000000","SEMIMAJOR_AXIS":"6915.850","GP_ID":"194192656","RA_OF_ASC_NODE":"161.2880","INCLINATION":"53.0604","COUNTRY_CODE":"US","ECCENTRICITY":"0.00011970","PERIOD":"95.396","CENTER_NAME":"EARTH","MEAN_MOTION_DDOT":"0.0000000000000","MEAN_ELEMENT_THEORY":"SGP4","CLASSIFICATION_TYPE":"U","LAUNCH_DATE":"2021-03-14","DECAY_DATE":null,"MEAN_MOTION":"15.09504483","NORAD_CAT_ID":"47872","TLE_LINE1":"1 47872U 21021N   22019.43313503  .00040018  00000-0  24727-2 0  9997","OBJECT_NAME":"STARLINK-2328","MEAN_ANOMALY":"306.7032","APOAPSIS":"538.543","REV_AT_EPOCH":"4927","OBJECT_ID":"2021-021N","MEAN_MOTION_DOT":"0.00040018"},{"REF_FRAME":"TEME","ELEMENT_SET_NO":"999","RCS_SIZE":"LARGE","OBJECT_TYPE":"PAYLOAD","EPOCH":"2022-01-19T11:55:27.843456","FILE":"3277432","TIME_SYSTEM":"UTC","TLE_LINE2":"2 47873  53.0542 201.1252 0002396  69.1590 290.9656 15.06395691 48704","SITE":"AFETR","PERIAPSIS":"545.567","ARG_OF_PERICENTER":"69.1590","INCLINATION":"53.0542","COUNTRY_CODE":"US","ECCENTRICITY":"0.00023960","EPHEMERIS_TYPE":"0","SEMIMAJOR_AXIS":"6925.362","BSTAR":"0.00026935000000","GP_ID":"194193406","RA_OF_ASC_NODE":"201.1252","MEAN_MOTION":"15.06395691","DECAY_DATE":null,"NORAD_CAT_ID":"47873","APOAPSIS":"548.886","TLE_LINE1":"1 47873U 21021P   22019.49685004  .00003732  00000-0  26935-3 0  9998","MEAN_ANOMALY":"290.9656","OBJECT_NAME":"STARLINK-2329","MEAN_MOTION_DDOT":"0.0000000000000","PERIOD":"95.592","CENTER_NAME":"EARTH","LAUNCH_DATE":"2021-03-14","CLASSIFICATION_TYPE":"U","MEAN_ELEMENT_THEORY":"SGP4","OBJECT_ID":"2021-021P","REV_AT_EPOCH":"4870","MEAN_MOTION_DOT":"0.00003732"},{"ECCENTRICITY":"0.00022840","INCLINATION":"53.0533","COUNTRY_CODE":"US","BSTAR":"0.00002517800000","SEMIMAJOR_AXIS":"6925.346","GP_ID":"194200724","RA_OF_ASC_NODE":"155.5016","EPHEMERIS_TYPE":"0","RCS_SIZE":"LARGE","EPOCH":"2022-01-19T15:19:04.513152","OBJECT_TYPE":"PAYLOAD","ELEMENT_SET_NO":"999","REF_FRAME":"TEME","ARG_OF_PERICENTER":"70.0274","TLE_LINE2":"2 47874  53.0533 155.5016 0002284  70.0274 290.0960 15.06400952 48886","PERIAPSIS":"545.629","SITE":"AFETR","FILE":"3277873","TIME_SYSTEM":"UTC","REV_AT_EPOCH":"4888","OBJECT_ID":"2021-021Q","MEAN_MOTION_DOT":"0.00000093","MEAN_ANOMALY":"290.0960","TLE_LINE1":"1 47874U 21021Q   22019.63824668  .00000093  00000-0  25178-4 0  9992","OBJECT_NAME":"STARLINK-2330","APOAPSIS":"548.792","DECAY_DATE":null,"MEAN_MOTION":"15.06400952","NORAD_CAT_ID":"47874","MEAN_ELEMENT_THEORY":"SGP4","LAUNCH_DATE":"2021-03-14","CLASSIFICATION_TYPE":"U","PERIOD":"95.592","CENTER_NAME":"EARTH","MEAN_MOTION_DDOT":"0.0000000000000"},{"APOAPSIS":"548.921","OBJECT_NAME":"STARLINK-2331","TLE_LINE1":"1 47875U 21021R   22019.55489426  .00001021  00000-0  87473-4 0  9991","MEAN_ANOMALY":"285.1939","NORAD_CAT_ID":"47875","MEAN_MOTION":"15.06388747","DECAY_DATE":null,"LAUNCH_DATE":"2021-03-14","CLASSIFICATION_TYPE":"U","MEAN_ELEMENT_THEORY":"SGP4","MEAN_MOTION_DDOT":"0.0000000000000","PERIOD":"95.593","CENTER_NAME":"EARTH","MEAN_MOTION_DOT":"0.00001021","OBJECT_ID":"2021-021R","REV_AT_EPOCH":"4863","OBJECT_TYPE":"PAYLOAD","EPOCH":"2022-01-19T13:19:02.864064","RCS_SIZE":"LARGE","REF_FRAME":"TEME","ELEMENT_SET_NO":"999","SITE":"AFETR","TLE_LINE2":"2 47875  53.0558 210.8772 0002416  74.9317 285.1939 15.06388747 48637","PERIAPSIS":"545.575","ARG_OF_PERICENTER":"74.9317","TIME_SYSTEM":"UTC","FILE":"3277432","ECCENTRICITY":"0.00024160","COUNTRY_CODE":"US","INCLINATION":"53.0558","GP_ID":"194191905","RA_OF_ASC_NODE":"210.8772","SEMIMAJOR_AXIS":"6925.383","BSTAR":"0.00008747300000","EPHEMERIS_TYPE":"0"},{"OBJECT_ID":"2021-021S","REV_AT_EPOCH":"4858","MEAN_MOTION_DOT":"0.00000657","APOAPSIS":"548.806","TLE_LINE1":"1 47876U 21021S   22019.54384053  .00000657  00000-0  63015-4 0  9991","MEAN_ANOMALY":"284.4710","OBJECT_NAME":"STARLINK-2332","MEAN_MOTION":"15.06386963","DECAY_DATE":null,"NORAD_CAT_ID":"47876","LAUNCH_DATE":"2021-03-14","CLASSIFICATION_TYPE":"U","MEAN_ELEMENT_THEORY":"SGP4","MEAN_MOTION_DDOT":"0.0000000000000","PERIOD":"95.593","CENTER_NAME":"EARTH","ECCENTRICITY":"0.00022420","INCLINATION":"53.0555","COUNTRY_CODE":"US","SEMIMAJOR_AXIS":"6925.389","BSTAR":"0.00006301500000","GP_ID":"194193156","RA_OF_ASC_NODE":"210.9368","EPHEMERIS_TYPE":"0","RCS_SIZE":"LARGE","OBJECT_TYPE":"PAYLOAD","EPOCH":"2022-01-19T13:03:07.821792","REF_FRAME":"TEME","ELEMENT_SET_NO":"999","TLE_LINE2":"2 47876  53.0555 210.9368 0002242  75.6528 284.4710 15.06386963 48587","SITE":"AFETR","PERIAPSIS":"545.701","ARG_OF_PERICENTER":"75.6528","FILE":"3277432","TIME_SYSTEM":"UTC"},{"EPHEMERIS_TYPE":"0","RA_OF_ASC_NODE":"212.3470","GP_ID":"194192907","SEMIMAJOR_AXIS":"6925.328","BSTAR":"0.00000998250000","COUNTRY_CODE":"US","INCLINATION":"53.0560","ECCENTRICITY":"0.00021810","TIME_SYSTEM":"UTC","FILE":"3277432","PERIAPSIS":"545.683","TLE_LINE2":"2 47877  53.0560 212.3470 0002181  78.0715 282.0519 15.06406622 48521","SITE":"AFETR","ARG_OF_PERICENTER":"78.0715","REF_FRAME":"TEME","ELEMENT_SET_NO":"999","OBJECT_TYPE":"PAYLOAD","EPOCH":"2022-01-19T05:26:38.596704","RCS_SIZE":"LARGE","MEAN_MOTION_DOT":"-0.00000133","OBJECT_ID":"2021-021T","REV_AT_EPOCH":"4852","MEAN_MOTION_DDOT":"0.0000000000000","PERIOD":"95.592","CENTER_NAME":"EARTH","LAUNCH_DATE":"2021-03-14","CLASSIFICATION_TYPE":"U","MEAN_ELEMENT_THEORY":"SGP4","NORAD_CAT_ID":"47877","MEAN_MOTION":"15.06406622","DECAY_DATE":null,"APOAPSIS":"548.704","TLE_LINE1":"1 47877U 21021T   22019.22683561 -.00000133  00000-0  99825-5 0  9992","OBJECT_NAME":"STARLINK-2333","MEAN_ANOMALY":"282.0519"},{"MEAN_ANOMALY":"284.8921","TLE_LINE1":"1 47878U 21021U   22019.50329729  .00000430  00000-0  47833-4 0  9997","OBJECT_NAME":"STARLINK-2335","APOAPSIS":"548.888","NORAD_CAT_ID":"47878","DECAY_DATE":null,"MEAN_MOTION":"15.06383805","MEAN_ELEMENT_THEORY":"SGP4","CLASSIFICATION_TYPE":"U","LAUNCH_DATE":"2021-03-14","PERIOD":"95.593","CENTER_NAME":"EARTH","MEAN_MOTION_DDOT":"0.0000000000000","MEAN_MOTION_DOT":"0.00000430","REV_AT_EPOCH":"4836","OBJECT_ID":"2021-021U","EPOCH":"2022-01-19T12:04:44.885856","OBJECT_TYPE":"PAYLOAD","RCS_SIZE":"LARGE","ELEMENT_SET_NO":"999","REF_FRAME":"TEME","ARG_OF_PERICENTER":"75.2327","TLE_LINE2":"2 47878  53.0537 211.1136 0002346  75.2327 284.8921 15.06383805 48369","SITE":"AFETR","PERIAPSIS":"545.638","TIME_SYSTEM":"UTC","FILE":"3277432","ECCENTRICITY":"0.00023460","COUNTRY_CODE":"US","INCLINATION":"53.0537","GP_ID":"194192155","RA_OF_ASC_NODE":"211.1136","BSTAR":"0.00004783300000","SEMIMAJOR_AXIS":"6925.398","EPHEMERIS_TYPE":"0"},{"PERIOD":"95.593","CENTER_NAME":"EARTH","MEAN_MOTION_DDOT":"0.0000000000000","MEAN_ELEMENT_THEORY":"SGP4","LAUNCH_DATE":"2021-03-14","CLASSIFICATION_TYPE":"U","DECAY_DATE":null,"MEAN_MOTION":"15.06388644","NORAD_CAT_ID":"47879","MEAN_ANOMALY":"286.6387","TLE_LINE1":"1 47879U 21021V   22019.83180461  .00002172  00000-0  16476-3 0  9995","OBJECT_NAME":"STARLINK-2336","APOAPSIS":"548.791","REV_AT_EPOCH":"4793","OBJECT_ID":"2021-021V","MEAN_MOTION_DOT":"0.00002172","FILE":"3277873","TIME_SYSTEM":"UTC","ARG_OF_PERICENTER":"73.4847","TLE_LINE2":"2 47879  53.0535 224.6468 0002228  73.4847 286.6387 15.06388644 47935","PERIAPSIS":"545.705","SITE":"AFETR","ELEMENT_SET_NO":"999","REF_FRAME":"TEME","RCS_SIZE":"LARGE","EPOCH":"2022-01-19T19:57:47.918304","OBJECT_TYPE":"PAYLOAD","EPHEMERIS_TYPE":"0","BSTAR":"0.00016476000000","SEMIMAJOR_AXIS":"6925.383","RA_OF_ASC_NODE":"224.6468","GP_ID":"194200717","INCLINATION":"53.0535","COUNTRY_CODE":"US","ECCENTRICITY":"0.00022280"}];
